SUPERVIEW-1 03          
1 43099U 18002A   26068.92678103  .00022818  00000+0  62641-3 0  9996
2 43099  97.3162 154.1458 0050939 177.0269 183.1288 15.35916978453110
CUAVA-2                 
1 60527U 24149BM  26068.46955133  .00015400  00000+0  47570-3 0  9993
2 60527  97.3769 149.9859 0005669 291.2139  68.8497 15.33611708 86877
